GLOBALSTAR M045         
1 25676U 99019A   25128.53866446 -.00000101  00000+0 -65478-4 0  9991
2 25676  51.9984  58.2734 0000743  83.4013  87.2452 12.27061691188523
GLOBALSTAR M019         
1 25677U 99019B   25128.48338797 -.00000111  00000+0 -22170-3 0  9991
2 25677  51.9858 186.0050 0001435 230.9202 142.4536 12.13873056180512
GLOBALSTAR M044         
1 25678U 99019C   25128.48401140 -.00000050  00000+0  47454-3 0  9998
2 25678  51.9936 132.3968 0006281 324.3621 203.4965 11.90249682166591
GLOBALSTAR M042         
1 25679U 99019D   25128.40463550 -.00000051  00000+0  38327-3 0  9994
2 25679  51.9982 163.2615 0003043 216.0906 246.1236 12.22082297180393
GLOBALSTAR M025         
1 25770U 99031A   25128.88060758 -.00000067  00000+0  22448-4 0  9990
2 25770  51.9814 250.3281 0002007 101.6111  49.1901 11.22557990477296
GLOBALSTAR M049         
1 25771U 99031B   25128.71105381 -.00000083  00000+0 -59997-3 0  9992
2 25771  51.9878 283.5011 0001980 306.3567  53.7047 11.12112335113034
GLOBALSTAR M047         
1 25772U 99031C   25128.58753895 -.00000067  00000+0  78021-4 0  9998
2 25772  51.9836 284.5335 0016665 192.3804 167.6594 11.31927956466624
GLOBALSTAR M052         
1 25773U 99031D   25128.68850456 -.00000101  00000+0 -11709-2 0  9999
2 25773  51.9900  32.7792 0002925  98.4363 298.0070 11.15059198474103
